#dP2022  2  5  0  0  0.00000000      96 __u+U ITR00 EXT  IAC
## 2195 518400.00000000   900.00000000 59615 0.0000000000000
+  116   C06C07C08C09C10C11C12C13C14C16C19C20C21C22C23C24C25
+        C26C27C28C29C30C32C33C34C35C36C37C38C39C40C41C42C43
+        C44C45C46E01E02E03E04E05E07E08E09E11E12E13E14E15E18
+        E19E21E24E25E26E27E30E31E33E36G01G02G03G04G05G06G07
+        G08G09G10G11G12G13G14G15G16G17G18G19G20G21G22G23G24
+        G25G26G27G28G29G30G31G32J01J02J03R01R02R03R04R05R07
+        R08R09R11R12R13R14R15R17R18R19R20R21R22R24  0  0  0
++         9  7  9  9  7  8  6  9  9  9  9  9  8  7  9  9  7
++         8  9  8 11 10  7  8  8 10 10  7  8 10 10  9  8  8
++         9  9  7  8  7  9  8  8 10  7  7  8  8  7  8  8  6
++        10  9  7  7  7  7  8  8  8  9  8  7  8  6  8  6  7
++         9  8  8  8  8  7  7  8  7  7  6  9  8  7  8  8  8
++         6  7  8  9  9  8  7  7 13  8 10  9 10  9  7  6 10
++         7  9  9  7  8  8  8  9  9  8  8  9  8  7  0  0  0
%c M  cc GPS ccc cccc cccc cccc cccc ccccc ccccc ccccc ccccc
%c cc cc ccc ccc cccc cccc cccc cccc ccccc ccccc ccccc ccccc
%f  0.0000000  0.000000000  0.00000000000  0.000000000000000
%f  0.0000000  0.000000000  0.00000000000  0.000000000000000
%i    0    0    0    0      0      0      0      0         0
%i    0    0    0    0      0      0      0      0         0
/* IAC                                ULTRA-RAPID PREDICTION
/* S/V CLOCKS ARE ALIGNED TO GNSS TIME                      
/* G:C1WC2W R:C1PC2P E:C1XC5X C:C2IC6I J:C1CC2S             
/* PCV:IGS14_2194 OL/AL:FES2004  NONE     YN ORB:CoN CLK:CoN
*  2022 02 05 23 15  0.00000000
PC06  -1491.862256  31469.222774  28110.805328      0.844367
PC07 -15632.586735  27483.948504 -27940.998260    -17.551828
PC08 -13742.418632  39711.751446   2186.244686    113.508023
PC09   5861.764700  35914.751808  22022.813705   -497.648286
PC10  -8068.297100  27826.512592 -30493.847140    139.874475
PC11  -7735.079265  14364.146467 -22566.206260   -225.966344
PC12 -19036.235698  -3015.493168 -20143.196373   -435.962435
PC13  -8244.747772  40253.617449   8952.953500   -125.225513
PC14 -18503.361426  13808.939470  15733.976605    458.382069
PC16  -2509.942553  30275.638722  29483.413241     75.149434
PC19   8557.049525 -16013.295036 -21161.529023    901.001707
PC20  24260.104301 -10138.111990  -9299.424204   -817.230711
PC21 -26367.639410  -2224.333656  -8872.058571   -957.759466
PC22 -12740.553140 -12870.557967 -21234.582117   -957.851364
PC23   5053.627955  21159.004410 -17477.052915   -966.803720
PC24 -17755.198382  15481.459634  14920.311219   -943.777274
PC25  -7855.996367  26630.836532  -2677.740754   -783.719326
PC26 -16308.190447  -2413.788767  22498.368542    783.233283
PC27  21161.634447  11544.278845  14059.493279    672.837202
PC28  15435.310045  23090.115915  -2707.892869     29.338900
PC29  -1193.939522 -21117.951045  18196.051957    511.229271
PC30  14855.388626  -6701.753112  22652.585774    492.729064
PC32  26347.283591   2096.816406   8963.445383   -962.851389
PC33  -8568.360669  16098.753626  21132.514783   -955.837260
PC34 -14223.706057   7660.229347 -22759.084837   -475.525687
PC35 -15773.994137 -22740.311987   3411.552121    126.422566
PC36   8801.376006 -26395.636550   2218.450389   -892.940448
PC37  15867.240096   3945.953276 -22607.521371   -965.095346
PC38 -16641.365086  38418.649240  -4156.654607    209.351141
PC39  -6512.392554  26413.282955  32260.882237     34.740630
PC40 -21294.945671  21506.033625 -29432.928485    241.910609
PC41  12320.196103  13070.699693  21409.771824   -932.775926
PC42 -24763.975360   9728.275550   8485.279471   -930.099302
PC43    468.710338  20892.228042 -18512.002503   -943.527655
PC44 -21614.910081 -10874.744705 -13877.663964    555.382508
PC45  -5128.164457 -20991.336181  17667.966437    672.924384
PC46  17412.857949 -16789.711296 -13957.861033   -153.224291
PE01   6227.526803  16025.063267 -24096.528942   -573.519528
PE02  -6341.254427 -15947.289218  24113.989975    278.367347
PE03 -17922.052659 -18075.376195 -15118.498903   -524.721702
PE04  28183.638509   8737.690746  -2376.075841   -958.430290
PE05   3081.404633 -16964.300247 -24059.772598   -211.785638
PE07 -21997.380477   6000.506960  18881.398167   -636.046786
PE08 -28261.671267  -8359.292107   2793.992610   5860.143636
PE09  21763.227744  -6140.935715 -19095.063897   5370.195724
PE11  13050.400775 -12996.825525  23165.966483   4518.375150
PE12  16546.155152  10098.238356  22382.044405   4773.849780
PE13 -13201.980197  12350.634705 -23430.095846    426.293974
PE14 -23009.173111 -17380.460173   3191.190405  -1735.607286
PE15 -16484.104373 -10201.913226 -22354.372979    765.017335
PE18  11918.537287  21293.766505 -13840.002667  -1826.643690
PE19  15699.412986  18507.650316  16954.254628    495.591727
PE21 -11854.215852  22732.760815 -14789.313149   -715.485356
PE24  24577.112437 -15840.056234  -4732.306157  -1374.832917
PE25  12096.760254 -22750.258669  14582.636440   -562.667814
PE26  -1676.799757  27891.868660  -9759.180636   -772.028051
PE27 -24153.101638  16725.095486   3537.432641   -225.828686
PE30 -21607.527555   -189.077537  20207.074498   -250.736392
PE31  22146.533221   -942.882873 -19619.713011   -491.775535
PE33  10042.669972  26643.641396   8119.731489   -459.705439
PE36   2200.944945 -27488.520810  10752.089301   -328.257390
PG01  13109.147856 -10706.683969  20090.799645    438.768761
PG02 -13939.281321 -12535.236163 -18104.616973   -650.299176
PG03  23062.386531 -12952.413285   1549.673010   -108.535046
PG04  18770.335571  -3907.624312 -18411.707275   -191.224897
PG05 -21633.435434   1360.930132 -15610.727743    -70.425430
PG06  -5698.313324 -24716.069509  -7682.560492    192.553811
PG07   5966.254561 -23811.772986  -9103.808096    308.066913
PG08  24242.462923   4415.417607  10335.365050    -55.012511
PG09   8364.022618 -12971.929977 -21686.868801   -355.357335
PG10  -2098.527494  17368.477964  20034.515028   -312.572631
PG11 -12521.056616 -14365.237563 -18511.115041    -98.806566
PG12 -24302.911383   9699.303317   3840.785030   -166.677186
PG13 -22882.566030 -12841.031054   4485.151969    256.999236
PG14   3493.401210 -17755.106476  19413.853265    -80.321521
PG15 -24516.097844  -1447.578364  10105.549970    -86.045713
PG16  19746.179134   3822.725573 -17845.582563   -465.643653
PG17  -6375.761113 -18486.537010  18388.884589    571.260196
PG18  -6129.302658  24076.787716  -9248.906716    246.258945
PG19 -13987.871561 -19211.079924  11788.543770    115.116189
PG20 -15260.759574  -6721.112466 -20627.380983    516.831886
PG21  15659.523726    308.380547  22155.356736    157.529305
PG22  16293.767898  18842.314119   9873.318545    209.266032
PG23 -13254.042528  19129.891397  12701.159820      4.058828
PG24 -14791.282590   6309.984984  20793.452219    275.767441
PG25 -18493.396787  17524.746273  -7249.168684    281.398391
PG26   9551.680641  12519.677157 -21473.598394    180.747446
PG27  23565.964123  12714.336240    -21.868863    106.044014
PG28  -4723.977272 -14641.756622  22186.916205    406.700766
PG29 -11647.538385   9825.364705 -21805.603409   -476.567370
PG30    152.918096 -26417.687437   -538.665561   -511.563907
PG31   7277.333984  23240.410537 -10136.420343   -163.374171
PG32  11478.080695  18443.937407  15537.250909    -62.638121
PJ01 -31171.703245  21126.144391  24009.594989    261.472363
PJ02 -35600.985577  22665.299393   4105.730831     -1.181104
PJ03 -20262.406605  22272.687330 -24884.833032     -0.417832
PR01 -10084.064365 -10264.057543 -21063.421386      7.075520
PR02 -24443.511817  -3896.574398  -5981.862802    508.769997
PR03 -22383.500244   4548.313664  11339.023559     51.052610
PR04  -7899.717535  10020.228492  22112.385180    126.490691
PR05  10955.714959  10154.610670  20695.002120     87.193504
PR07  22098.050845  -4764.968762 -11828.362004     31.367556
PR08   7827.657097 -10135.356721 -22009.435696    -63.445529
PR09  12518.594948    477.514112 -22196.967766     37.930890
PR11  11135.456531 -22504.902027   4474.463849     46.054351
PR12   -928.163137 -16313.887293  19615.168223     17.088334
PR13 -11777.902534  -1425.280305  22558.799124    -17.918013
PR14 -16355.969166  15494.735025  11975.983712     74.006387
PR15 -11026.406738  22406.664731  -5175.443716     98.399576
PR17  -9841.183727   3905.244798 -23194.283481    499.044092
PR18    483.034441  18329.771309 -17741.185606    106.274830
PR19   9309.493098  23407.596902  -4012.140732   -177.118974
PR20  14458.142752  14309.327001  15434.744702    -64.397510
PR21   9039.481325  -5298.515574  23262.078116   -275.765838
PR22   -923.886925 -18770.214957  17185.722304   -162.847507
PR24 -15014.075617 -13256.586847 -15779.599590     78.921315
EOF
